start=new Date('2022-08-04T00:00:00.000Z').valueOf();
sats=[{"SEMIMAJOR_AXIS":"6917.837","PERIOD":"95.437","SITE":"AFETR","NORAD_CAT_ID":"49418","MEAN_ELEMENT_THEORY":"SGP4","OBJECT_ID":"2021-104L","FILE":"3528281","ELEMENT_SET_NO":"999","APOAPSIS":"541.027","MEAN_MOTION":"15.08854144","TIME_SYSTEM":"UTC","GP_ID":"209470470","OBJECT_TYPE":"PAYLOAD","TLE_LINE1":"1 49418U 21104L   22215.43528608  .00001055  00000-0  84322-4 0  9996","CLASSIFICATION_TYPE":"U","OBJECT_NAME":"STARLINK-3111","CENTER_NAME":"EARTH","PERIAPSIS":"538.377","TLE_LINE2":"2 49418  53.2196   9.0486 0001915  60.3748 299.7435 15.08854144 41313","RCS_SIZE":"LARGE","ARG_OF_PERICENTER":"60.3748","EPOCH":"2022-08-03T10:26:48.717312","LAUNCH_DATE":"2021-11-13","ECCENTRICITY":"0.00019150","MEAN_MOTION_DOT":"0.00001055","REF_FRAME":"TEME","EPHEMERIS_TYPE":"0","INCLINATION":"53.2196","RA_OF_ASC_NODE":"9.0486","REV_AT_EPOCH":"4131","BSTAR":"0.00008432200000","DECAY_DATE":null,"MEAN_MOTION_DDOT":"0.0000000000000","COUNTRY_CODE":"US","MEAN_ANOMALY":"299.7435"},{"OBJECT_TYPE":"PAYLOAD","TLE_LINE1":"1 49419U 21104M   22215.42425244 -.00000037  00000-0  15791-4 0  9992","CLASSIFICATION_TYPE":"U","GP_ID":"209496095","RCS_SIZE":"LARGE","OBJECT_NAME":"STARLINK-3120","CENTER_NAME":"EARTH","PERIAPSIS":"538.739","TLE_LINE2":"2 49419  53.2182   9.0986 0001446  60.2051 299.9085 15.08842062 40216","PERIOD":"95.437","SEMIMAJOR_AXIS":"6917.874","FILE":"3528364","OBJECT_ID":"2021-104M","ELEMENT_SET_NO":"999","APOAPSIS":"540.739","TIME_SYSTEM":"UTC","MEAN_MOTION":"15.08842062","SITE":"AFETR","NORAD_CAT_ID":"49419","MEAN_ELEMENT_THEORY":"SGP4","DECAY_DATE":null,"BSTAR":"0.00001579100000","MEAN_MOTION_DDOT":"0.0000000000000","RA_OF_ASC_NODE":"9.0986","REV_AT_EPOCH":"4021","COUNTRY_CODE":"US","MEAN_ANOMALY":"299.9085","EPOCH":"2022-08-03T10:10:55.410816","LAUNCH_DATE":"2021-11-13","ARG_OF_PERICENTER":"60.2051","MEAN_MOTION_DOT":"-0.00000037","REF_FRAME":"TEME","EPHEMERIS_TYPE":"0","INCLINATION":"53.2182","ECCENTRICITY":"0.00014460"},{"MEAN_MOTION_DDOT":"0.0000000000000","BSTAR":"0.00012036000000","DECAY_DATE":null,"REV_AT_EPOCH":"4134","RA_OF_ASC_NODE":"8.1560","COUNTRY_CODE":"US","MEAN_ANOMALY":"282.3772","EPOCH":"2022-08-03T15:07:40.735776","LAUNCH_DATE":"2021-11-13","ARG_OF_PERICENTER":"77.7368","REF_FRAME":"TEME","MEAN_MOTION_DOT":"0.00001628","EPHEMERIS_TYPE":"0","INCLINATION":"53.2189","ECCENTRICITY":"0.00013210","OBJECT_TYPE":"PAYLOAD","CLASSIFICATION_TYPE":"U","TLE_LINE1":"1 49420U 21104N   22215.63033259  .00001628  00000-0  12036-3 0  9992","GP_ID":"209500605","RCS_SIZE":"LARGE","OBJECT_NAME":"STARLINK-3110","TLE_LINE2":"2 49420  53.2189   8.1560 0001321  77.7368 282.3772 15.08842005 41340","CENTER_NAME":"EARTH","PERIAPSIS":"538.825","SEMIMAJOR_AXIS":"6917.874","PERIOD":"95.437","FILE":"3528535","ELEMENT_SET_NO":"999","OBJECT_ID":"2021-104N","APOAPSIS":"540.653","MEAN_MOTION":"15.08842005","TIME_SYSTEM":"UTC","SITE":"AFETR","NORAD_CAT_ID":"49420","MEAN_ELEMENT_THEORY":"SGP4"},{"SEMIMAJOR_AXIS":"6917.905","PERIOD":"95.438","MEAN_ELEMENT_THEORY":"SGP4","SITE":"AFETR","NORAD_CAT_ID":"49421","MEAN_MOTION":"15.08831922","APOAPSIS":"540.914","TIME_SYSTEM":"UTC","OBJECT_ID":"2021-104P","FILE":"3528364","ELEMENT_SET_NO":"999","GP_ID":"209494645","TLE_LINE1":"1 49421U 21104P   22215.15193604  .00000690  00000-0  61467-4 0  9992","CLASSIFICATION_TYPE":"U","OBJECT_TYPE":"PAYLOAD","PERIAPSIS":"538.627","CENTER_NAME":"EARTH","TLE_LINE2":"2 49421  53.2200  10.3200 0001653  57.3793 302.7358 15.08831922 40178","OBJECT_NAME":"STARLINK-3112","RCS_SIZE":"LARGE","ARG_OF_PERICENTER":"57.3793","LAUNCH_DATE":"2021-11-13","EPOCH":"2022-08-03T03:38:47.273856","ECCENTRICITY":"0.00016530","INCLINATION":"53.2200","EPHEMERIS_TYPE":"0","MEAN_MOTION_DOT":"0.00000690","REF_FRAME":"TEME","RA_OF_ASC_NODE":"10.3200","REV_AT_EPOCH":"4017","BSTAR":"0.00006146700000","DECAY_DATE":null,"MEAN_MOTION_DDOT":"0.0000000000000","MEAN_ANOMALY":"302.7358","COUNTRY_CODE":"US"},{"DECAY_DATE":null,"BSTAR":"0.00005450800000","MEAN_MOTION_DDOT":"0.0000000000000","REV_AT_EPOCH":"4021","RA_OF_ASC_NODE":"9.0813","MEAN_ANOMALY":"291.9148","COUNTRY_CODE":"US","LAUNCH_DATE":"2021-11-13","EPOCH":"2022-08-03T10:16:13.121760","ARG_OF_PERICENTER":"68.2011","EPHEMERIS_TYPE":"0","INCLINATION":"53.2184","MEAN_MOTION_DOT":"0.00000580","REF_FRAME":"TEME","ECCENTRICITY":"0.00015740","TLE_LINE1":"1 49422U 21104Q   22215.42792965  .00000580  00000-0  54508-4 0  9994","CLASSIFICATION_TYPE":"U","OBJECT_TYPE":"PAYLOAD","GP_ID":"209495897","RCS_SIZE":"LARGE","PERIAPSIS":"538.638","CENTER_NAME":"EARTH","TLE_LINE2":"2 49422  53.2184   9.0813 0001574  68.2011 291.9148 15.08846087 40210","OBJECT_NAME":"STARLINK-3161","SEMIMAJOR_AXIS":"6917.862","PERIOD":"95.437","APOAPSIS":"540.816","MEAN_MOTION":"15.08846087","TIME_SYSTEM":"UTC","OBJECT_ID":"2021-104Q","FILE":"3528364","ELEMENT_SET_NO":"999","MEAN_ELEMENT_THEORY":"SGP4","NORAD_CAT_ID":"49422","SITE":"AFETR"},{"MEAN_MOTION_DOT":"0.00000045","REF_FRAME":"TEME","EPHEMERIS_TYPE":"0","INCLINATION":"53.2169","ECCENTRICITY":"0.00016580","EPOCH":"2022-08-03T09:49:44.161824","LAUNCH_DATE":"2021-11-13","ARG_OF_PERICENTER":"62.2792","COUNTRY_CODE":"US","MEAN_ANOMALY":"297.8368","BSTAR":"0.00002091100000","DECAY_DATE":null,"MEAN_MOTION_DDOT":"0.0000000000000","REV_AT_EPOCH":"4021","RA_OF_ASC_NODE":"9.1668","ELEMENT_SET_NO":"999","FILE":"3528364","OBJECT_ID":"2021-104R","MEAN_MOTION":"15.08838924","APOAPSIS":"540.896","TIME_SYSTEM":"UTC","SITE":"AFETR","NORAD_CAT_ID":"49423","MEAN_ELEMENT_THEORY":"SGP4","PERIOD":"95.438","SEMIMAJOR_AXIS":"6917.884","RCS_SIZE":"LARGE","OBJECT_NAME":"STARLINK-3149","PERIAPSIS":"538.602","CENTER_NAME":"EARTH","TLE_LINE2":"2 49423  53.2169   9.1668 0001658  62.2792 297.8368 15.08838924 40216","OBJECT_TYPE":"PAYLOAD","TLE_LINE1":"1 49423U 21104R   22215.40953891  .00000045  00000-0  20911-4 0  9997","CLASSIFICATION_TYPE":"U","GP_ID":"209495595"},{"OBJECT_ID":"2021-104S","FILE":"3528364","ELEMENT_SET_NO":"999","MEAN_MOTION":"15.08833749","APOAPSIS":"540.728","TIME_SYSTEM":"UTC","SITE":"AFETR","NORAD_CAT_ID":"49424","MEAN_ELEMENT_THEORY":"SGP4","PERIOD":"95.438","SEMIMAJOR_AXIS":"6917.899","RCS_SIZE":"LARGE","OBJECT_NAME":"STARLINK-3135","TLE_LINE2":"2 49424  53.2198   9.1115 0001393  82.7002 277.4149 15.08833749 40214","CENTER_NAME":"EARTH","PERIAPSIS":"538.801","OBJECT_TYPE":"PAYLOAD","CLASSIFICATION_TYPE":"U","TLE_LINE1":"1 49424U 21104S   22215.42057322  .00001818  00000-0  13232-3 0  9990","GP_ID":"209494896","REF_FRAME":"TEME","MEAN_MOTION_DOT":"0.00001818","EPHEMERIS_TYPE":"0","INCLINATION":"53.2198","ECCENTRICITY":"0.00013930","EPOCH":"2022-08-03T10:05:37.526208","LAUNCH_DATE":"2021-11-13","ARG_OF_PERICENTER":"82.7002","COUNTRY_CODE":"US","MEAN_ANOMALY":"277.4149","MEAN_MOTION_DDOT":"0.0000000000000","DECAY_DATE":null,"BSTAR":"0.00013232000000","RA_OF_ASC_NODE":"9.1115","REV_AT_EPOCH":"4021"},{"RCS_SIZE":"LARGE","OBJECT_NAME":"STARLINK-3139","TLE_LINE2":"2 49425  53.2180   9.1801 0001879  48.4437 311.6716 15.08835073 40222","CENTER_NAME":"EARTH","PERIAPSIS":"538.461","OBJECT_TYPE":"PAYLOAD","CLASSIFICATION_TYPE":"U","TLE_LINE1":"1 49425U 21104T   22215.40585741  .00000567  00000-0  53706-4 0  9991","GP_ID":"209495146","FILE":"3528364","OBJECT_ID":"2021-104T","ELEMENT_SET_NO":"999","APOAPSIS":"541.060","TIME_SYSTEM":"UTC","MEAN_MOTION":"15.08835073","NORAD_CAT_ID":"49425","SITE":"AFETR","MEAN_ELEMENT_THEORY":"SGP4","PERIOD":"95.438","SEMIMAJOR_AXIS":"6917.895","COUNTRY_CODE":"US","MEAN_ANOMALY":"311.6716","MEAN_MOTION_DDOT":"0.0000000000000","BSTAR":"0.00005370600000","DECAY_DATE":null,"RA_OF_ASC_NODE":"9.1801","REV_AT_EPOCH":"4022","REF_FRAME":"TEME","MEAN_MOTION_DOT":"0.00000567","EPHEMERIS_TYPE":"0","INCLINATION":"53.2180","ECCENTRICITY":"0.00018790","EPOCH":"2022-08-03T09:44:26.080224","LAUNCH_DATE":"2021-11-13","ARG_OF_PERICENTER":"48.4437"},{"BSTAR":"0.00005633800000","DECAY_DATE":null,"MEAN_MOTION_DDOT":"0.0000000000000","REV_AT_EPOCH":"4022","RA_OF_ASC_NODE":"8.8499","MEAN_ANOMALY":"300.2922","COUNTRY_CODE":"US","LAUNCH_DATE":"2021-11-13","EPOCH":"2022-08-03T11:30:24.434208","ARG_OF_PERICENTER":"59.8249","EPHEMERIS_TYPE":"0","INCLINATION":"53.2187","MEAN_MOTION_DOT":"0.00000609","REF_FRAME":"TEME","ECCENTRICITY":"0.00018040","TLE_LINE1":"1 49426U 21104U   22215.47944947  .00000609  00000-0  56338-4 0  9997","CLASSIFICATION_TYPE":"U","OBJECT_TYPE":"PAYLOAD","GP_ID":"209495397","RCS_SIZE":"LARGE","CENTER_NAME":"EARTH","PERIAPSIS":"538.479","TLE_LINE2":"2 49426  53.2187   8.8499 0001804  59.8249 300.2922 15.08845883 40227","OBJECT_NAME":"STARLINK-3114","PERIOD":"95.437","SEMIMAJOR_AXIS":"6917.862","APOAPSIS":"540.975","TIME_SYSTEM":"UTC","MEAN_MOTION":"15.08845883","OBJECT_ID":"2021-104U","FILE":"3528364","ELEMENT_SET_NO":"999","MEAN_ELEMENT_THEORY":"SGP4","NORAD_CAT_ID":"49426","SITE":"AFETR"},{"MEAN_ANOMALY":"306.7151","COUNTRY_CODE":"US","REV_AT_EPOCH":"4131","RA_OF_ASC_NODE":"9.1982","MEAN_MOTION_DDOT":"0.0000000000000","BSTAR":"-0.00010819000000","DECAY_DATE":null,"ECCENTRICITY":"0.00018190","EPHEMERIS_TYPE":"0","INCLINATION":"53.2191","REF_FRAME":"TEME","MEAN_MOTION_DOT":"-0.00002009","ARG_OF_PERICENTER":"53.4008","LAUNCH_DATE":"2021-11-13","EPOCH":"2022-08-03T09:39:08.987904","TLE_LINE2":"2 49427  53.2191   9.1982 0001819  53.4008 306.7151 15.08826685 41318","PERIAPSIS":"538.528","CENTER_NAME":"EARTH","OBJECT_NAME":"STARLINK-3131","RCS_SIZE":"LARGE","GP_ID":"209470657","CLASSIFICATION_TYPE":"U","TLE_LINE1":"1 49427U 21104V   22215.40218736 -.00002009  00000-0 -10819-3 0  9992","OBJECT_TYPE":"PAYLOAD","MEAN_ELEMENT_THEORY":"SGP4","NORAD_CAT_ID":"49427","SITE":"AFETR","TIME_SYSTEM":"UTC","APOAPSIS":"541.044","MEAN_MOTION":"15.08826685","FILE":"3528293","OBJECT_ID":"2021-104V","ELEMENT_SET_NO":"999","SEMIMAJOR_AXIS":"6917.921","PERIOD":"95.438"}];
